ONEWEB-0425             
1 51628U 22012G   25347.25346589  .00000066  00000+0  15326-3 0  9993
2 51628  87.8810  73.3273 0001787 116.8919 243.2391 13.10369349184971
ONEWEB-0428             
1 51629U 22012H   25347.23355644  .00000681  00000+0  19131-2 0  9994
2 51629  87.8808  73.3494 0001709 103.4429 256.6889 13.10372100184931
ONEWEB-0431             
1 51630U 22012J   25347.27986981 -.00000486  00000+0 -14273-2 0  9991
2 51630  87.8818  73.3202 0001393  80.6345 279.4940 13.10374039184993
ONEWEB-0434             
1 51631U 22012K   25347.25692920 -.00000078  00000+0 -25851-3 0  9999
2 51631  87.8801  73.3607 0002026 123.7880 236.3441 13.10372403184971
ONEWEB-0435             
1 51632U 22012L   25347.26507376 -.00000435  00000+0 -12822-2 0  9991
2 51632  87.8805  73.3494 0001949  95.0025 265.1324 13.10371504184965
ONEWEB-0436             
1 51633U 22012M   25347.16860175 -.00000172  00000+0 -47520-3 0  9992
2 51633  87.9119  42.8232 0001815  92.9509 267.1831 13.17648456189185
ONEWEB-0438             
1 51634U 22012N   25347.24848292  .00000318  00000+0  87568-3 0  9994
2 51634  87.8806  73.3533 0001719 112.3898 247.7412 13.10368593184999
ONEWEB-0439             
1 51635U 22012P   25347.32816309  .00000158  00000+0  41525-3 0  9993
2 51635  87.8804  73.3259 0001759 105.3167 254.8155 13.10370400184980
ONEWEB-0442             
1 51636U 22012Q   25347.23693371  .00000095  00000+0  21126-3 0  9991
2 51636  87.9110  42.8572 0001639 121.4765 238.6527 13.17650981189183
ONEWEB-0443             
1 51637U 22012R   25347.18041340  .00000005  00000+0 -21463-4 0  9996
2 51637  87.9104  42.8734 0002020 106.7922 253.3431 13.17648179189222
ONEWEB-0444             
1 51638U 22012S   25347.31820987  .00000531  00000+0  14861-2 0  9999
2 51638  87.8805  73.3267 0001714 103.7711 256.3608 13.10370432184997
ONEWEB-0445             
1 51639U 22012T   25347.26341274 -.00000440  00000+0 -12980-2 0  9992
2 51639  87.8821  73.3050 0001473 107.2465 252.8823 13.10370160184991
ONEWEB-0446             
1 51640U 22012U   25347.31655196  .00000618  00000+0  17344-2 0  9995
2 51640  87.8806  73.3438 0001470 104.2240 255.9050 13.10370509184983
ONEWEB-0448             
1 51641U 22012V   25347.32153203  .00000457  00000+0  12730-2 0  9994
2 51641  87.8804  73.3422 0001731 105.7438 254.3880 13.10370497184957
ONEWEB-0449             
1 51642U 22012W   25347.25014662  .00000200  00000+0  53770-3 0  9998
2 51642  87.8812  73.3288 0001878 119.1283 241.0033 13.10370417184951
ONEWEB-0451             
1 51643U 22012X   25347.16521900 -.00000016  00000+0 -75531-4 0  9994
2 51643  87.9118  42.8191 0001800 103.6135 256.5197 13.17647068189161
ONEWEB-0452             
1 51644U 22012Y   25347.23947575 -.00000063  00000+0 -19650-3 0  9994
2 51644  87.9111  42.8591 0002016 106.0425 254.0928 13.17648391189185
