[{"OBJECT_NAME":"ONEWEB-0425","OBJECT_ID":"2022-012G","EPOCH":"2025-12-13T06:04:59.452896","MEAN_MOTION":13.10369349,"ECCENTRICITY":0.00017872,"INCLINATION":87.881,"RA_OF_ASC_NODE":73.3273,"ARG_OF_PERICENTER":116.8919,"MEAN_ANOMALY":243.2391,"EPHEMERIS_TYPE":0,"CLASSIFICATION_TYPE":"U","NORAD_CAT_ID":51628,"ELEMENT_SET_NO":999,"REV_AT_EPOCH":18497,"BSTAR":0.00015326314,"MEAN_MOTION_DOT":6.6e-7,"MEAN_MOTION_DDOT":0},{"OBJECT_NAME":"ONEWEB-0428","OBJECT_ID":"2022-012H","EPOCH":"2025-12-13T05:36:19.276416","MEAN_MOTION":13.103721,"ECCENTRICITY":0.00017096,"INCLINATION":87.8808,"RA_OF_ASC_NODE":73.3494,"ARG_OF_PERICENTER":103.4429,"MEAN_ANOMALY":256.6889,"EPHEMERIS_TYPE":0,"CLASSIFICATION_TYPE":"U","NORAD_CAT_ID":51629,"ELEMENT_SET_NO":999,"REV_AT_EPOCH":18493,"BSTAR":0.0019131429,"MEAN_MOTION_DOT":6.81e-6,"MEAN_MOTION_DDOT":0},{"OBJECT_NAME":"ONEWEB-0431","OBJECT_ID":"2022-012J","EPOCH":"2025-12-13T06:43:00.751584","MEAN_MOTION":13.10374039,"ECCENTRICITY":0.00013938,"INCLINATION":87.8818,"RA_OF_ASC_NODE":73.3202,"ARG_OF_PERICENTER":80.6345,"MEAN_ANOMALY":279.494,"EPHEMERIS_TYPE":0,"CLASSIFICATION_TYPE":"U","NORAD_CAT_ID":51630,"ELEMENT_SET_NO":999,"REV_AT_EPOCH":18499,"BSTAR":-0.0014273432,"MEAN_MOTION_DOT":-4.86e-6,"MEAN_MOTION_DDOT":0},{"OBJECT_NAME":"ONEWEB-0434","OBJECT_ID":"2022-012K","EPOCH":"2025-12-13T06:09:58.682880","MEAN_MOTION":13.10372403,"ECCENTRICITY":0.0002026,"INCLINATION":87.8801,"RA_OF_ASC_NODE":73.3607,"ARG_OF_PERICENTER":123.788,"MEAN_ANOMALY":236.3441,"EPHEMERIS_TYPE":0,"CLASSIFICATION_TYPE":"U","NORAD_CAT_ID":51631,"ELEMENT_SET_NO":999,"REV_AT_EPOCH":18497,"BSTAR":-0.00025851412,"MEAN_MOTION_DOT":-7.8e-7,"MEAN_MOTION_DDOT":0},{"OBJECT_NAME":"ONEWEB-0435","OBJECT_ID":"2022-012L","EPOCH":"2025-12-13T06:21:42.372864","MEAN_MOTION":13.10371504,"ECCENTRICITY":0.00019491,"INCLINATION":87.8805,"RA_OF_ASC_NODE":73.3494,"ARG_OF_PERICENTER":95.0025,"MEAN_ANOMALY":265.1324,"EPHEMERIS_TYPE":0,"CLASSIFICATION_TYPE":"U","NORAD_CAT_ID":51632,"ELEMENT_SET_NO":999,"REV_AT_EPOCH":18496,"BSTAR":-0.0012822394,"MEAN_MOTION_DOT":-4.35e-6,"MEAN_MOTION_DDOT":0},{"OBJECT_NAME":"ONEWEB-0436","OBJECT_ID":"2022-012M","EPOCH":"2025-12-13T04:02:47.191200","MEAN_MOTION":13.17648456,"ECCENTRICITY":0.00018151,"INCLINATION":87.9119,"RA_OF_ASC_NODE":42.8232,"ARG_OF_PERICENTER":92.9509,"MEAN_ANOMALY":267.1831,"EPHEMERIS_TYPE":0,"CLASSIFICATION_TYPE":"U","NORAD_CAT_ID":51633,"ELEMENT_SET_NO":999,"REV_AT_EPOCH":18918,"BSTAR":-0.00047520247,"MEAN_MOTION_DOT":-1.72e-6,"MEAN_MOTION_DDOT":0},{"OBJECT_NAME":"ONEWEB-0438","OBJECT_ID":"2022-012N","EPOCH":"2025-12-13T05:57:48.924288","MEAN_MOTION":13.10368593,"ECCENTRICITY":0.00017198,"INCLINATION":87.8806,"RA_OF_ASC_NODE":73.3533,"ARG_OF_PERICENTER":112.3898,"MEAN_ANOMALY":247.7412,"EPHEMERIS_TYPE":0,"CLASSIFICATION_TYPE":"U","NORAD_CAT_ID":51634,"ELEMENT_SET_NO":999,"REV_AT_EPOCH":18499,"BSTAR":0.00087568381,"MEAN_MOTION_DOT":3.18e-6,"MEAN_MOTION_DDOT":0},{"OBJECT_NAME":"ONEWEB-0439","OBJECT_ID":"2022-012P","EPOCH":"2025-12-13T07:52:33.290976","MEAN_MOTION":13.103704,"ECCENTRICITY":0.00017593,"INCLINATION":87.8804,"RA_OF_ASC_NODE":73.3259,"ARG_OF_PERICENTER":105.3167,"MEAN_ANOMALY":254.8155,"EPHEMERIS_TYPE":0,"CLASSIFICATION_TYPE":"U","NORAD_CAT_ID":51635,"ELEMENT_SET_NO":999,"REV_AT_EPOCH":18498,"BSTAR":0.00041525495,"MEAN_MOTION_DOT":1.58e-6,"MEAN_MOTION_DDOT":0},{"OBJECT_NAME":"ONEWEB-0442","OBJECT_ID":"2022-012Q","EPOCH":"2025-12-13T05:41:11.072544","MEAN_MOTION":13.17650981,"ECCENTRICITY":0.0001639,"INCLINATION":87.911,"RA_OF_ASC_NODE":42.8572,"ARG_OF_PERICENTER":121.4765,"MEAN_ANOMALY":238.6527,"EPHEMERIS_TYPE":0,"CLASSIFICATION_TYPE":"U","NORAD_CAT_ID":51636,"ELEMENT_SET_NO":999,"REV_AT_EPOCH":18918,"BSTAR":0.00021125597,"MEAN_MOTION_DOT":9.5e-7,"MEAN_MOTION_DDOT":0},{"OBJECT_NAME":"ONEWEB-0443","OBJECT_ID":"2022-012R","EPOCH":"2025-12-13T04:19:47.717760","MEAN_MOTION":13.17648179,"ECCENTRICITY":0.000202,"INCLINATION":87.9104,"RA_OF_ASC_NODE":42.8734,"ARG_OF_PERICENTER":106.7922,"MEAN_ANOMALY":253.3431,"EPHEMERIS_TYPE":0,"CLASSIFICATION_TYPE":"U","NORAD_CAT_ID":51637,"ELEMENT_SET_NO":999,"REV_AT_EPOCH":18922,"BSTAR":-2.1462916e-5,"MEAN_MOTION_DOT":5.0e-8,"MEAN_MOTION_DDOT":0},{"OBJECT_NAME":"ONEWEB-0444","OBJECT_ID":"2022-012S","EPOCH":"2025-12-13T07:38:13.332768","MEAN_MOTION":13.10370432,"ECCENTRICITY":0.00017145,"INCLINATION":87.8805,"RA_OF_ASC_NODE":73.3267,"ARG_OF_PERICENTER":103.7711,"MEAN_ANOMALY":256.3608,"EPHEMERIS_TYPE":0,"CLASSIFICATION_TYPE":"U","NORAD_CAT_ID":51638,"ELEMENT_SET_NO":999,"REV_AT_EPOCH":18499,"BSTAR":0.0014861418,"MEAN_MOTION_DOT":5.31e-6,"MEAN_MOTION_DDOT":0},{"OBJECT_NAME":"ONEWEB-0445","OBJECT_ID":"2022-012T","EPOCH":"2025-12-13T06:19:18.860736","MEAN_MOTION":13.1037016,"ECCENTRICITY":0.0001473,"INCLINATION":87.8821,"RA_OF_ASC_NODE":73.305,"ARG_OF_PERICENTER":107.2465,"MEAN_ANOMALY":252.8823,"EPHEMERIS_TYPE":0,"CLASSIFICATION_TYPE":"U","NORAD_CAT_ID":51639,"ELEMENT_SET_NO":999,"REV_AT_EPOCH":18499,"BSTAR":-0.0012980497,"MEAN_MOTION_DOT":-4.4e-6,"MEAN_MOTION_DDOT":0},{"OBJECT_NAME":"ONEWEB-0446","OBJECT_ID":"2022-012U","EPOCH":"2025-12-13T07:35:50.089344","MEAN_MOTION":13.10370509,"ECCENTRICITY":0.000147,"INCLINATION":87.8806,"RA_OF_ASC_NODE":73.3438,"ARG_OF_PERICENTER":104.224,"MEAN_ANOMALY":255.905,"EPHEMERIS_TYPE":0,"CLASSIFICATION_TYPE":"U","NORAD_CAT_ID":51640,"ELEMENT_SET_NO":999,"REV_AT_EPOCH":18498,"BSTAR":0.001734357,"MEAN_MOTION_DOT":6.18e-6,"MEAN_MOTION_DDOT":0},{"OBJECT_NAME":"ONEWEB-0448","OBJECT_ID":"2022-012V","EPOCH":"2025-12-13T07:43:00.367392","MEAN_MOTION":13.10370497,"ECCENTRICITY":0.00017319,"INCLINATION":87.8804,"RA_OF_ASC_NODE":73.3422,"ARG_OF_PERICENTER":105.7438,"MEAN_ANOMALY":254.388,"EPHEMERIS_TYPE":0,"CLASSIFICATION_TYPE":"U","NORAD_CAT_ID":51641,"ELEMENT_SET_NO":999,"REV_AT_EPOCH":18495,"BSTAR":0.001273037,"MEAN_MOTION_DOT":4.57e-6,"MEAN_MOTION_DDOT":0},{"OBJECT_NAME":"ONEWEB-0449","OBJECT_ID":"2022-012W","EPOCH":"2025-12-13T06:00:12.667968","MEAN_MOTION":13.10370417,"ECCENTRICITY":0.00018785,"INCLINATION":87.8812,"RA_OF_ASC_NODE":73.3288,"ARG_OF_PERICENTER":119.1283,"MEAN_ANOMALY":241.0033,"EPHEMERIS_TYPE":0,"CLASSIFICATION_TYPE":"U","NORAD_CAT_ID":51642,"ELEMENT_SET_NO":999,"REV_AT_EPOCH":18495,"BSTAR":0.00053770418,"MEAN_MOTION_DOT":2.0e-6,"MEAN_MOTION_DDOT":0},{"OBJECT_NAME":"ONEWEB-0451","OBJECT_ID":"2022-012X","EPOCH":"2025-12-13T03:57:54.921600","MEAN_MOTION":13.17647068,"ECCENTRICITY":0.00018005,"INCLINATION":87.9118,"RA_OF_ASC_NODE":42.8191,"ARG_OF_PERICENTER":103.6135,"MEAN_ANOMALY":256.5197,"EPHEMERIS_TYPE":0,"CLASSIFICATION_TYPE":"U","NORAD_CAT_ID":51643,"ELEMENT_SET_NO":999,"REV_AT_EPOCH":18916,"BSTAR":-7.5531228e-5,"MEAN_MOTION_DOT":-1.6e-7,"MEAN_MOTION_DDOT":0},{"OBJECT_NAME":"ONEWEB-0452","OBJECT_ID":"2022-012Y","EPOCH":"2025-12-13T05:44:50.704800","MEAN_MOTION":13.17648391,"ECCENTRICITY":0.00020169,"INCLINATION":87.9111,"RA_OF_ASC_NODE":42.8591,"ARG_OF_PERICENTER":106.0425,"MEAN_ANOMALY":254.0928,"EPHEMERIS_TYPE":0,"CLASSIFICATION_TYPE":"U","NORAD_CAT_ID":51644,"ELEMENT_SET_NO":999,"REV_AT_EPOCH":18918,"BSTAR":-0.00019649573,"MEAN_MOTION_DOT":-6.3e-7,"MEAN_MOTION_DDOT":0}]
